{"type": "FeatureCollection", "features": [ {"type": "Feature", "properties": {"norad_id": 37470, "name": "FENGYUN 1C DEB", "group": "fengyun-1c-debris", "lat": -74.9404464427454, "lon": -81.337614085266, "alt_km": 572.1891026861595, "timestamp": "2025-12-15T11:38:37.442757+00:00", "meta": {"OBJECT_NAME": "FENGYUN 1C DEB", "OBJECT_ID": "1999-025EJQ", "EPOCH": "2025-12-02T08:43:26.114016", "MEAN_MOTION": 14.99042865, "ECCENTRICITY": 0.00053598, "INCLINATION": 98.6674, "RA_OF_ASC_NODE": 118.5972, "ARG_OF_PERICENTER": 185.6749, "MEAN_ANOMALY": 174.4411, "EPHEMERIS_TYPE": 0, "CLASSIFICATION_TYPE": "U", "NORAD_CAT_ID": 37470, "ELEMENT_SET_NO": 999, "REV_AT_EPOCH": 65306, "BSTAR": 0.0063565181, "MEAN_MOTION_DOT": 0.00077884, "MEAN_MOTION_DDOT": 0}, "tle": {"line1": "1 37470U 99025EJQ 25336.36349669  .00077884  00000+0  63565-2 0  9991", "line2": "2 37470  98.6674 118.5972 0005359 185.6749 174.4411 14.99042865653068"}}, "geometry": {"type": "Point", "coordinates": [-81.337614085266, -74.9404464427454]}}, {"type": "Feature", "properties": {"norad_id": 37474, "name": "FENGYUN 1C DEB", "group": "fengyun-1c-debris", "lat": -36.82915020001058, "lon": -158.05376399971192, "alt_km": 739.6515637195243, "timestamp": "2025-12-15T11:38:37.442767+00:00", "meta": {"OBJECT_NAME": "FENGYUN 1C DEB", "OBJECT_ID": "1999-025EJU", "EPOCH": "2025-12-12T07:18:16.881984", "MEAN_MOTION": 14.75114553, "ECCENTRICITY": 0.01319761, "INCLINATION": 99.1665, "RA_OF_ASC_NODE": 191.4007, "ARG_OF_PERICENTER": 136.3304, "MEAN_ANOMALY": 224.8435, "EPHEMERIS_TYPE": 0, "CLASSIFICATION_TYPE": "U", "NORAD_CAT_ID": 37474, "ELEMENT_SET_NO": 999, "REV_AT_EPOCH": 62369, "BSTAR": 0.0018387774, "MEAN_MOTION_DOT": 0.00014243, "MEAN_MOTION_DDOT": 0}, "tle": {"line1": "1 37474U 99025EJU 25346.30436206  .00014243  00000+0  18388-2 0  9997", "line2": "2 37474  99.1665 191.4007 0131976 136.3304 224.8435 14.75114553623692"}}, "geometry": {"type": "Point", "coordinates": [-158.05376399971192, -36.82915020001058]}}, {"type": "Feature", "properties": {"norad_id": 37477, "name": "FENGYUN 1C DEB", "group": "fengyun-1c-debris", "lat": -4.22126541699488, "lon": -5.284215909930217, "alt_km": 835.2790640112953, "timestamp": "2025-12-15T11:38:37.442777+00:00", "meta": {"OBJECT_NAME": "FENGYUN 1C DEB", "OBJECT_ID": "1999-025EJX", "EPOCH": "2025-12-05T11:28:45.537312", "MEAN_MOTION": 14.19689266, "ECCENTRICITY": 0.0036971, "INCLINATION": 98.6048, "RA_OF_ASC_NODE": 344.3504, "ARG_OF_PERICENTER": 127.046, "MEAN_ANOMALY": 233.4107, "EPHEMERIS_TYPE": 0, "CLASSIFICATION_TYPE": "U", "NORAD_CAT_ID": 37477, "ELEMENT_SET_NO": 999, "REV_AT_EPOCH": 81811, "BSTAR": 0.001143971, "MEAN_MOTION_DOT": 2.393e-05, "MEAN_MOTION_DDOT": 0}, "tle": {"line1": "1 37477U 99025EJX 25339.47830483  .00002393  00000+0  11440-2 0  9990", "line2": "2 37477  98.6048 344.3504 0036971 127.0460 233.4107 14.19689266818115"}}, "geometry": {"type": "Point", "coordinates": [-5.284215909930217, -4.22126541699488]}}, {"type": "Feature", "properties": {"norad_id": 37478, "name": "FENGYUN 1C DEB", "group": "fengyun-1c-debris", "lat": 47.12417249898093, "lon": -38.89811732216939, "alt_km": 1261.1388401436407, "timestamp": "2025-12-15T11:38:37.442788+00:00", "meta": {"OBJECT_NAME": "FENGYUN 1C DEB", "OBJECT_ID": "1999-025EJY", "EPOCH": "2025-12-14T05:55:23.732544", "MEAN_MOTION": 13.02983973, "ECCENTRICITY": 0.05482188, "INCLINATION": 99.6498, "RA_OF_ASC_NODE": 330.5496, "ARG_OF_PERICENTER": 315.7365, "MEAN_ANOMALY": 40.1108, "EPHEMERIS_TYPE": 0, "CLASSIFICATION_TYPE": "U", "NORAD_CAT_ID": 37478, "ELEMENT_SET_NO": 999, "REV_AT_EPOCH": 56581, "BSTAR": 0.0055489953, "MEAN_MOTION_DOT": 3.525e-05, "MEAN_MOTION_DDOT": 0}, "tle": {"line1": "1 37478U 99025EJY 25348.24680246  .00003525  00000+0  55490-2 0  9997", "line2": "2 37478  99.6498 330.5496 0548218 315.7365  40.1108 13.02983973565818"}}, "geometry": {"type": "Point", "coordinates": [-38.89811732216939, 47.12417249898093]}}, {"type": "Feature", "properties": {"norad_id": 37589, "name": "FENGYUN 1C DEB", "group": "fengyun-1c-debris", "lat": -68.18165303431232, "lon": -84.37304271043568, "alt_km": 800.8638379667427, "timestamp": "2025-12-15T11:38:37.442798+00:00", "meta": {"OBJECT_NAME": "FENGYUN 1C DEB", "OBJECT_ID": "1999-025EKH", "EPOCH": "2025-12-14T22:19:52.787712", "MEAN_MOTION": 14.08203479, "ECCENTRICITY": 0.01182522, "INCLINATION": 99.0734, "RA_OF_ASC_NODE": 251.544, "ARG_OF_PERICENTER": 258.1684, "MEAN_ANOMALY": 100.6202, "EPHEMERIS_TYPE": 0, "CLASSIFICATION_TYPE": "U", "NORAD_CAT_ID": 37589, "ELEMENT_SET_NO": 999, "REV_AT_EPOCH": 82615, "BSTAR": 0.0019842502, "MEAN_MOTION_DOT": 3.566e-05, "MEAN_MOTION_DDOT": 0}, "tle": {"line1": "1 37589U 99025EKH 25348.93047208  .00003566  00000+0  19843-2 0  9998", "line2": "2 37589  99.0734 251.5440 0118252 258.1684 100.6202 14.08203479826151"}}, "geometry": {"type": "Point", "coordinates": [-84.37304271043568, -68.18165303431232]}}, {"type": "Feature", "properties": {"norad_id": 37594, "name": "FENGYUN 1C DEB", "group": "fengyun-1c-debris", "lat": 24.339975165075398, "lon": -157.2665271556321, "alt_km": 872.0804002976274, "timestamp": "2025-12-15T11:38:37.442808+00:00", "meta": {"OBJECT_NAME": "FENGYUN 1C DEB", "OBJECT_ID": "1999-025EKN", "EPOCH": "2025-12-12T01:13:06.397536", "MEAN_MOTION": 14.11116962, "ECCENTRICITY": 0.00850219, "INCLINATION": 98.7348, "RA_OF_ASC_NODE": 15.4051, "ARG_OF_PERICENTER": 271.7365, "MEAN_ANOMALY": 87.407, "EPHEMERIS_TYPE": 0, "CLASSIFICATION_TYPE": "U", "NORAD_CAT_ID": 37594, "ELEMENT_SET_NO": 999, "REV_AT_EPOCH": 77752, "BSTAR": 0.00036155709, "MEAN_MOTION_DOT": 6.3e-06, "MEAN_MOTION_DDOT": 0}, "tle": {"line1": "1 37594U 99025EKN 25346.05076849  .00000630  00000+0  36156-3 0  9994", "line2": "2 37594  98.7348  15.4051 0085021 271.7365  87.4070 14.11116962777528"}}, "geometry": {"type": "Point", "coordinates": [-157.2665271556321, 24.339975165075398]}}, {"type": "Feature", "properties": {"norad_id": 37600, "name": "FENGYUN 1C DEB", "group": "fengyun-1c-debris", "lat": 55.702977904974155, "lon": 132.71623212484548, "alt_km": 695.5741355591999, "timestamp": "2025-12-15T11:38:37.442818+00:00", "meta": {"OBJECT_NAME": "FENGYUN 1C DEB", "OBJECT_ID": "1999-025EKU", "EPOCH": "2025-12-12T05:13:55.637184", "MEAN_MOTION": 13.82539982, "ECCENTRICITY": 0.03568946, "INCLINATION": 98.9366, "RA_OF_ASC_NODE": 142.947, "ARG_OF_PERICENTER": 50.9925, "MEAN_ANOMALY": 312.2443, "EPHEMERIS_TYPE": 0, "CLASSIFICATION_TYPE": "U", "NORAD_CAT_ID": 37600, "ELEMENT_SET_NO": 999, "REV_AT_EPOCH": 88480, "BSTAR": 0.0043245273, "MEAN_MOTION_DOT": 7.61e-05, "MEAN_MOTION_DDOT": 0}, "tle": {"line1": "1 37600U 99025EKU 25346.21800506  .00007610  00000+0  43245-2 0  9996", "line2": "2 37600  98.9366 142.9470 0356894  50.9925 312.2443 13.82539982884808"}}, "geometry": {"type": "Point", "coordinates": [132.71623212484548, 55.702977904974155]}}, {"type": "Feature", "properties": {"norad_id": 37683, "name": "FENGYUN 1C DEB", "group": "fengyun-1c-debris", "lat": -70.21866461422637, "lon": 65.67623189724858, "alt_km": 1437.2466437979674, "timestamp": "2025-12-15T11:38:37.442828+00:00", "meta": {"OBJECT_NAME": "FENGYUN 1C DEB", "OBJECT_ID": "1999-025EKY", "EPOCH": "2025-12-14T13:37:20.118144", "MEAN_MOTION": 13.31914371, "ECCENTRICITY": 0.05852093, "INCLINATION": 98.002, "RA_OF_ASC_NODE": 267.9791, "ARG_OF_PERICENTER": 120.375, "MEAN_ANOMALY": 49.1699, "EPHEMERIS_TYPE": 0, "CLASSIFICATION_TYPE": "U", "NORAD_CAT_ID": 37683, "ELEMENT_SET_NO": 999, "REV_AT_EPOCH": 29264, "BSTAR": 0.0015450592, "MEAN_MOTION_DOT": 1.925e-05, "MEAN_MOTION_DDOT": 0}, "tle": {"line1": "1 37683U 99025EKY 25348.56759396  .00001925  00000+0  15451-2 0  9998", "line2": "2 37683  98.0020 267.9791 0585209 120.3750  49.1699 13.31914371292640"}}, "geometry": {"type": "Point", "coordinates": [65.67623189724858, -70.21866461422637]}}, {"type": "Feature", "properties": {"norad_id": 37686, "name": "FENGYUN 1C DEB", "group": "fengyun-1c-debris", "lat": -63.197918810007906, "lon": 25.92860953081049, "alt_km": 1174.1431764469417, "timestamp": "2025-12-15T11:38:37.442838+00:00", "meta": {"OBJECT_NAME": "FENGYUN 1C DEB", "OBJECT_ID": "1999-025ELB", "EPOCH": "2025-12-11T07:20:34.881792", "MEAN_MOTION": 13.35362087, "ECCENTRICITY": 0.03959928, "INCLINATION": 99.0214, "RA_OF_ASC_NODE": 3.8986, "ARG_OF_PERICENTER": 45.8136, "MEAN_ANOMALY": 333.7313, "EPHEMERIS_TYPE": 0, "CLASSIFICATION_TYPE": "U", "NORAD_CAT_ID": 37686, "ELEMENT_SET_NO": 999, "REV_AT_EPOCH": 60608, "BSTAR": 0.00082312393, "MEAN_MOTION_DOT": 6.17e-06, "MEAN_MOTION_DDOT": 0}, "tle": {"line1": "1 37686U 99025ELB 25345.30595928  .00000617  00000+0  82312-3 0  9997", "line2": "2 37686  99.0214   3.8986 0395992  45.8136 333.7313 13.35362087606086"}}, "geometry": {"type": "Point", "coordinates": [25.92860953081049, -63.197918810007906]}}, {"type": "Feature", "properties": {"norad_id": 37687, "name": "FENGYUN 1C DEB", "group": "fengyun-1c-debris", "lat": 53.05793295145321, "lon": -144.65577647790363, "alt_km": 1108.0681472431033, "timestamp": "2025-12-15T11:38:37.442849+00:00", "meta": {"OBJECT_NAME": "FENGYUN 1C DEB", "OBJECT_ID": "1999-025ELC", "EPOCH": "2025-12-14T21:46:20.279424", "MEAN_MOTION": 13.85346082, "ECCENTRICITY": 0.03333739, "INCLINATION": 98.2067, "RA_OF_ASC_NODE": 23.7727, "ARG_OF_PERICENTER": 352.7982, "MEAN_ANOMALY": 129.6123, "EPHEMERIS_TYPE": 0, "CLASSIFICATION_TYPE": "U", "NORAD_CAT_ID": 37687, "ELEMENT_SET_NO": 999, "REV_AT_EPOCH": 83284, "BSTAR": 0.0025058041, "MEAN_MOTION_DOT": 4.365e-05, "MEAN_MOTION_DDOT": 0}, "tle": {"line1": "1 37687U 99025ELC 25348.90717916  .00004365  00000+0  25058-2 0  9997", "line2": "2 37687  98.2067  23.7727 0333373 352.7982 129.6123 13.85346082832840"}}, "geometry": {"type": "Point", "coordinates": [-144.65577647790363, 53.05793295145321]}}]}